{"spkid": "54101655", "covariance": {"data": [["2.862851462083952E-13", "-5.690887159251243E-13", "1.897897640048214E-11", "-4.827227878589388E-14", "-3.52622274511781E-11", "-1.729085494620348E-11"], ["-5.690887159251243E-13", "1.131943400744711E-12", "-3.591850612457765E-11", "-3.350924720806897E-14", "7.057641586294471E-11", "3.424159354556273E-11"], ["1.897897640048214E-11", "-3.591850612457765E-11", "7.341479359954692E-9", "-4.287762942034963E-10", "-2.697966827117905E-10", "-2.433070020152516E-9"], ["-4.827227878589388E-14", "-3.350924720806897E-14", "-4.287762942034963E-10", "1.569603780731197E-10", "-2.178781650234518E-10", "-2.227050371567347E-10"], ["-3.52622274511781E-11", "7.057641586294471E-11", "-2.697966827117905E-10", "-2.178781650234518E-10", "5.253600325545946E-9", "1.662158314392572E-9"], ["-1.729085494620348E-11", "3.424159354556273E-11", "-2.433070020152516E-9", "-2.227050371567347E-10", "1.662158314392572E-9", "3.712076649081478E-9"]], "elements": [{"label": "e", "title": "eccentricity", "value": ".6026529885837903", "units": null, "name": "e", "sigma": 5.35056208457014e-07}, {"name": "q", "sigma": 1.06392828740696e-06, "units": "au", "title": "perihelion distance", "value": ".7876429097342524", "label": "q"}, {"label": "tp", "title": "time of perihelion passage", "value": "2460139.604311401177", "units": "TDB", "name": "tp", "sigma": 8.56824332051483e-05}, {"name": "om", "sigma": 1.25283828993657e-05, "value": "283.318556200526", "title": "longitude of the ascending node", "units": "deg", "label": "node"}, {"label": "peri", "title": "argument of perihelion", "value": "71.21049601215655", "units": "deg", "sigma": 7.24817240795633e-05, "name": "w"}, {"sigma": 6.0926813876006e-05, "name": "i", "units": "deg", "title": "inclination", "value": "48.92277488242872", "label": "i"}], "labels": ["e", "q", "tp", "node", "peri", "i"], "epoch": "2459839.5"}, "elements": [{"units": null, "value": ".6023507823093132", "title": "eccentricity", "sigma": "5.3546E-7", "name": "e", "label": "e"}, {"name": "a", "sigma": "6.6154E-8", "units": "au", "value": "1.982279682542329", "title": "semi-major axis", "label": "a"}, {"sigma": "1.0651E-6", "name": "q", "value": ".7882519650071003", "title": "perihelion distance", "units": "au", "label": "q"}, {"units": "deg", "value": "48.92451153200889", "title": "inclination; angle with respect to x-y ecliptic plane", "name": "i", "sigma": "6.0937E-5", "label": "i"}, {"label": "node", "units": "deg", "value": "283.3008639354226", "title": "longitude of the ascending node", "sigma": "1.2522E-5", "name": "om"}, {"sigma": "7.2485E-5", "name": "w", "title": "argument of perihelion", "value": "71.1986314298307", "units": "deg", "label": "peri"}, {"label": "M", "name": "ma", "sigma": "4.6004E-5", "title": "mean anomaly", "value": "14.7660707434746", "units": "deg"}, {"sigma": ".00012839", "name": "tp", "value": "2461158.687294903392", "title": "time of perihelion passage", "units": "TDB", "label": "tp"}, {"title": "sidereal orbital period", "value": "1019.402798231259", "units": "d", "name": "per", "sigma": "5.103E-5", "label": "period"}, {"units": "deg/d", "value": ".3531479417406224", "title": "mean motion", "sigma": "1.7678E-8", "name": "n", "label": "n"}, {"units": "au", "value": "3.176307400077558", "title": "aphelion distance", "sigma": "1.06E-7", "name": "ad", "label": "Q"}], "epoch": "2461200.5"}